ONEWEB-0381             
1 49307U 21090AE  25316.26663557  .00000070  00000+0  13997-3 0  9990
2 49307  87.9178 317.7014 0001570  90.4903 269.6410 13.20772266201193
ONEWEB-0382             
1 49308U 21090AF  25316.25401520  .00000034  00000+0  52099-4 0  9997
2 49308  87.9186 317.6977 0001573  96.4124 263.7188 13.20771816201180
ONEWEB-0383             
1 49309U 21090AG  25316.32416965  .00000039  00000+0  71293-4 0  9997
2 49309  87.8998 332.8951 0001716  98.4884 261.6440 13.14504699199108
ONEWEB-0384             
1 49310U 21090AH  25316.24802437  .00000087  00000+0  18198-3 0  9990
2 49310  87.9200 317.7322 0001522 105.4221 254.7080 13.20798144201193
ONEWEB-0385             
1 49311U 21090AJ  25316.24610195  .00000019  00000+0  14721-4 0  9993
2 49311  87.9175 317.7070 0001668  93.1425 266.9900 13.20771633201162
ONEWEB-0386             
1 49312U 21090AK  25316.26347578  .00000022  00000+0  22812-4 0  9992
2 49312  87.9186 317.6849 0001632  97.0743 263.0576 13.20772444201185
ONEWEB-0387             
1 49313U 21090AL  25316.24770049  .00000026  00000+0  31047-4 0  9998
2 49313  87.9176 317.7362 0001576  84.4014 275.7300 13.20772042201183
ONEWEB-0388             
1 49314U 21090AM  25316.11691254  .00000177  00000+0  41025-3 0  9998
2 49314  87.9215 348.1711 0001713  99.0179 261.1148 13.19727739197781
ONEWEB-0389             
1 50469U 21132A   25316.24906646  .00000056  00000+0  11215-3 0  9990
2 50469  87.9139  49.0087 0001291 104.1758 255.9517 13.17648074189519
ONEWEB-0390             
1 50470U 21132B   25316.25076523  .00000193  00000+0  46366-3 0  9992
2 50470  87.9129  49.0124 0001771  93.3751 266.7584 13.17650932189517
ONEWEB-0391             
1 50471U 21132C   25316.25243681  .00000087  00000+0  19084-3 0  9993
2 50471  87.9128  49.0224 0000932  82.6521 277.4717 13.17652556189513
ONEWEB-0392             
1 50472U 21132D   25316.28281623  .00000027  00000+0  35499-4 0  9998
2 50472  87.9136  48.9659 0001280 100.8799 259.2476 13.17649007189551
ONEWEB-0393             
1 50473U 21132E   25316.25596696  .00000024  00000+0  27405-4 0  9990
2 50473  87.9141  48.9926 0001472 102.5827 257.5469 13.17649123189540
ONEWEB-0394             
1 50474U 21132F   25316.16691719 -.00000025  00000+0 -96314-4 0  9991
2 50474  87.9220  18.5420 0001610 102.6660 257.4653 13.18687903192997
ONEWEB-0395             
1 50475U 21132G   25316.25530489 -.00000418  00000+0 -12146-2 0  9993
2 50475  87.8858  64.2763 0001546  92.4680 267.6625 13.11415776187286
ONEWEB-0396             
1 50476U 21132H   25316.23620343 -.00000021  00000+0 -86388-4 0  9992
2 50476  87.9221  18.5408 0001641 100.9759 259.1557 13.18687324193046
ONEWEB-0397             
1 50477U 21132J   25316.17515862 -.00000090  00000+0 -26105-3 0  9991
2 50477  87.9225  18.5531 0001713 106.4852 253.6469 13.18684367193015
