[{"OBJECT_NAME":"ONEWEB-0381","OBJECT_ID":"2021-090AE","EPOCH":"2025-11-12T06:23:57.313248","MEAN_MOTION":13.20772266,"ECCENTRICITY":0.00015703,"INCLINATION":87.9178,"RA_OF_ASC_NODE":317.7014,"ARG_OF_PERICENTER":90.4903,"MEAN_ANOMALY":269.641,"EPHEMERIS_TYPE":0,"CLASSIFICATION_TYPE":"U","NORAD_CAT_ID":49307,"ELEMENT_SET_NO":999,"REV_AT_EPOCH":20119,"BSTAR":0.00013996836,"MEAN_MOTION_DOT":7.0e-7,"MEAN_MOTION_DDOT":0},{"OBJECT_NAME":"ONEWEB-0382","OBJECT_ID":"2021-090AF","EPOCH":"2025-11-12T06:05:46.913280","MEAN_MOTION":13.20771816,"ECCENTRICITY":0.00015739,"INCLINATION":87.9186,"RA_OF_ASC_NODE":317.6977,"ARG_OF_PERICENTER":96.4124,"MEAN_ANOMALY":263.7188,"EPHEMERIS_TYPE":0,"CLASSIFICATION_TYPE":"U","NORAD_CAT_ID":49308,"ELEMENT_SET_NO":999,"REV_AT_EPOCH":20118,"BSTAR":5.2098574e-5,"MEAN_MOTION_DOT":3.4e-7,"MEAN_MOTION_DDOT":0},{"OBJECT_NAME":"ONEWEB-0383","OBJECT_ID":"2021-090AG","EPOCH":"2025-11-12T07:46:48.257760","MEAN_MOTION":13.14504699,"ECCENTRICITY":0.00017163,"INCLINATION":87.8998,"RA_OF_ASC_NODE":332.8951,"ARG_OF_PERICENTER":98.4884,"MEAN_ANOMALY":261.644,"EPHEMERIS_TYPE":0,"CLASSIFICATION_TYPE":"U","NORAD_CAT_ID":49309,"ELEMENT_SET_NO":999,"REV_AT_EPOCH":19910,"BSTAR":7.1293367e-5,"MEAN_MOTION_DOT":3.9e-7,"MEAN_MOTION_DDOT":0},{"OBJECT_NAME":"ONEWEB-0384","OBJECT_ID":"2021-090AH","EPOCH":"2025-11-12T05:57:09.305568","MEAN_MOTION":13.20798144,"ECCENTRICITY":0.00015228,"INCLINATION":87.92,"RA_OF_ASC_NODE":317.7322,"ARG_OF_PERICENTER":105.4221,"MEAN_ANOMALY":254.708,"EPHEMERIS_TYPE":0,"CLASSIFICATION_TYPE":"U","NORAD_CAT_ID":49310,"ELEMENT_SET_NO":999,"REV_AT_EPOCH":20119,"BSTAR":0.00018197605,"MEAN_MOTION_DOT":8.7e-7,"MEAN_MOTION_DDOT":0},{"OBJECT_NAME":"ONEWEB-0385","OBJECT_ID":"2021-090AJ","EPOCH":"2025-11-12T05:54:23.208480","MEAN_MOTION":13.20771633,"ECCENTRICITY":0.00016687,"INCLINATION":87.9175,"RA_OF_ASC_NODE":317.707,"ARG_OF_PERICENTER":93.1425,"MEAN_ANOMALY":266.99,"EPHEMERIS_TYPE":0,"CLASSIFICATION_TYPE":"U","NORAD_CAT_ID":49311,"ELEMENT_SET_NO":999,"REV_AT_EPOCH":20116,"BSTAR":1.47209e-5,"MEAN_MOTION_DOT":1.9e-7,"MEAN_MOTION_DDOT":0},{"OBJECT_NAME":"ONEWEB-0386","OBJECT_ID":"2021-090AK","EPOCH":"2025-11-12T06:19:24.307392","MEAN_MOTION":13.20772444,"ECCENTRICITY":0.0001632,"INCLINATION":87.9186,"RA_OF_ASC_NODE":317.6849,"ARG_OF_PERICENTER":97.0743,"MEAN_ANOMALY":263.0576,"EPHEMERIS_TYPE":0,"CLASSIFICATION_TYPE":"U","NORAD_CAT_ID":49312,"ELEMENT_SET_NO":999,"REV_AT_EPOCH":20118,"BSTAR":2.2812267e-5,"MEAN_MOTION_DOT":2.2e-7,"MEAN_MOTION_DDOT":0},{"OBJECT_NAME":"ONEWEB-0387","OBJECT_ID":"2021-090AL","EPOCH":"2025-11-12T05:56:41.322336","MEAN_MOTION":13.20772042,"ECCENTRICITY":0.00015763,"INCLINATION":87.9176,"RA_OF_ASC_NODE":317.7362,"ARG_OF_PERICENTER":84.4014,"MEAN_ANOMALY":275.73,"EPHEMERIS_TYPE":0,"CLASSIFICATION_TYPE":"U","NORAD_CAT_ID":49313,"ELEMENT_SET_NO":999,"REV_AT_EPOCH":20118,"BSTAR":3.1046916e-5,"MEAN_MOTION_DOT":2.6e-7,"MEAN_MOTION_DDOT":0},{"OBJECT_NAME":"ONEWEB-0388","OBJECT_ID":"2021-090AM","EPOCH":"2025-11-12T02:48:21.243456","MEAN_MOTION":13.19727739,"ECCENTRICITY":0.00017136,"INCLINATION":87.9215,"RA_OF_ASC_NODE":348.1711,"ARG_OF_PERICENTER":99.0179,"MEAN_ANOMALY":261.1148,"EPHEMERIS_TYPE":0,"CLASSIFICATION_TYPE":"U","NORAD_CAT_ID":49314,"ELEMENT_SET_NO":999,"REV_AT_EPOCH":19778,"BSTAR":0.00041025161,"MEAN_MOTION_DOT":1.77e-6,"MEAN_MOTION_DDOT":0},{"OBJECT_NAME":"ONEWEB-0389","OBJECT_ID":"2021-132A","EPOCH":"2025-11-12T05:58:39.342144","MEAN_MOTION":13.17648074,"ECCENTRICITY":0.0001291,"INCLINATION":87.9139,"RA_OF_ASC_NODE":49.0087,"ARG_OF_PERICENTER":104.1758,"MEAN_ANOMALY":255.9517,"EPHEMERIS_TYPE":0,"CLASSIFICATION_TYPE":"U","NORAD_CAT_ID":50469,"ELEMENT_SET_NO":999,"REV_AT_EPOCH":18951,"BSTAR":0.00011215004,"MEAN_MOTION_DOT":5.6e-7,"MEAN_MOTION_DDOT":0},{"OBJECT_NAME":"ONEWEB-0390","OBJECT_ID":"2021-132B","EPOCH":"2025-11-12T06:01:06.115872","MEAN_MOTION":13.17650932,"ECCENTRICITY":0.00017718,"INCLINATION":87.9129,"RA_OF_ASC_NODE":49.0124,"ARG_OF_PERICENTER":93.3751,"MEAN_ANOMALY":266.7584,"EPHEMERIS_TYPE":0,"CLASSIFICATION_TYPE":"U","NORAD_CAT_ID":50470,"ELEMENT_SET_NO":999,"REV_AT_EPOCH":18951,"BSTAR":0.00046365908,"MEAN_MOTION_DOT":1.93e-6,"MEAN_MOTION_DDOT":0},{"OBJECT_NAME":"ONEWEB-0391","OBJECT_ID":"2021-132C","EPOCH":"2025-11-12T06:03:30.540384","MEAN_MOTION":13.17652556,"ECCENTRICITY":9.322e-5,"INCLINATION":87.9128,"RA_OF_ASC_NODE":49.0224,"ARG_OF_PERICENTER":82.6521,"MEAN_ANOMALY":277.4717,"EPHEMERIS_TYPE":0,"CLASSIFICATION_TYPE":"U","NORAD_CAT_ID":50471,"ELEMENT_SET_NO":999,"REV_AT_EPOCH":18951,"BSTAR":0.00019083559,"MEAN_MOTION_DOT":8.7e-7,"MEAN_MOTION_DDOT":0},{"OBJECT_NAME":"ONEWEB-0392","OBJECT_ID":"2021-132D","EPOCH":"2025-11-12T06:47:15.322272","MEAN_MOTION":13.17649007,"ECCENTRICITY":0.00012808,"INCLINATION":87.9136,"RA_OF_ASC_NODE":48.9659,"ARG_OF_PERICENTER":100.8799,"MEAN_ANOMALY":259.2476,"EPHEMERIS_TYPE":0,"CLASSIFICATION_TYPE":"U","NORAD_CAT_ID":50472,"ELEMENT_SET_NO":999,"REV_AT_EPOCH":18955,"BSTAR":3.5499405e-5,"MEAN_MOTION_DOT":2.7e-7,"MEAN_MOTION_DDOT":0},{"OBJECT_NAME":"ONEWEB-0393","OBJECT_ID":"2021-132E","EPOCH":"2025-11-12T06:08:35.545344","MEAN_MOTION":13.17649123,"ECCENTRICITY":0.00014728,"INCLINATION":87.9141,"RA_OF_ASC_NODE":48.9926,"ARG_OF_PERICENTER":102.5827,"MEAN_ANOMALY":257.5469,"EPHEMERIS_TYPE":0,"CLASSIFICATION_TYPE":"U","NORAD_CAT_ID":50473,"ELEMENT_SET_NO":999,"REV_AT_EPOCH":18954,"BSTAR":2.7405389e-5,"MEAN_MOTION_DOT":2.4e-7,"MEAN_MOTION_DDOT":0},{"OBJECT_NAME":"ONEWEB-0394","OBJECT_ID":"2021-132F","EPOCH":"2025-11-12T04:00:21.645216","MEAN_MOTION":13.18687903,"ECCENTRICITY":0.00016101,"INCLINATION":87.922,"RA_OF_ASC_NODE":18.542,"ARG_OF_PERICENTER":102.666,"MEAN_ANOMALY":257.4653,"EPHEMERIS_TYPE":0,"CLASSIFICATION_TYPE":"U","NORAD_CAT_ID":50474,"ELEMENT_SET_NO":999,"REV_AT_EPOCH":19299,"BSTAR":-9.6313877e-5,"MEAN_MOTION_DOT":-2.5e-7,"MEAN_MOTION_DDOT":0},{"OBJECT_NAME":"ONEWEB-0395","OBJECT_ID":"2021-132G","EPOCH":"2025-11-12T06:07:38.342496","MEAN_MOTION":13.11415776,"ECCENTRICITY":0.00015465,"INCLINATION":87.8858,"RA_OF_ASC_NODE":64.2763,"ARG_OF_PERICENTER":92.468,"MEAN_ANOMALY":267.6625,"EPHEMERIS_TYPE":0,"CLASSIFICATION_TYPE":"U","NORAD_CAT_ID":50475,"ELEMENT_SET_NO":999,"REV_AT_EPOCH":18728,"BSTAR":-0.001214587,"MEAN_MOTION_DOT":-4.18e-6,"MEAN_MOTION_DDOT":0},{"OBJECT_NAME":"ONEWEB-0396","OBJECT_ID":"2021-132H","EPOCH":"2025-11-12T05:40:07.976352","MEAN_MOTION":13.18687324,"ECCENTRICITY":0.00016411,"INCLINATION":87.9221,"RA_OF_ASC_NODE":18.5408,"ARG_OF_PERICENTER":100.9759,"MEAN_ANOMALY":259.1557,"EPHEMERIS_TYPE":0,"CLASSIFICATION_TYPE":"U","NORAD_CAT_ID":50476,"ELEMENT_SET_NO":999,"REV_AT_EPOCH":19304,"BSTAR":-8.6387974e-5,"MEAN_MOTION_DOT":-2.1e-7,"MEAN_MOTION_DDOT":0},{"OBJECT_NAME":"ONEWEB-0397","OBJECT_ID":"2021-132J","EPOCH":"2025-11-12T04:12:13.704768","MEAN_MOTION":13.18684367,"ECCENTRICITY":0.00017136,"INCLINATION":87.9225,"RA_OF_ASC_NODE":18.5531,"ARG_OF_PERICENTER":106.4852,"MEAN_ANOMALY":253.6469,"EPHEMERIS_TYPE":0,"CLASSIFICATION_TYPE":"U","NORAD_CAT_ID":50477,"ELEMENT_SET_NO":999,"REV_AT_EPOCH":19301,"BSTAR":-0.00026105414,"MEAN_MOTION_DOT":-9.0e-7,"MEAN_MOTION_DDOT":0}]
